UNKNOWN                 
1 82627U          26062.32571745  .00000719  00000+0  18517-2 0  9995
2 82627  82.4734 191.1604 0016132 245.7240 144.0414 13.16431080589438
UNKNOWN                 
1 82642U          26062.54981209  .00003400  00000+0  18738-2 0  9991
2 82642  98.9746 337.5622 0136834  11.2481 349.1694 14.07579066627508
UNKNOWN                 
1 82683U          26062.63841939  .00001880  00000+0  71632-3 0  9994
2 82683  98.1608 130.4954 0210991 158.8020 202.2065 14.20379991473751
UNKNOWN                 
1 82693U          26060.73941356  .00002664  00000+0  30752-2 0  9996
2 82693 100.5288  36.5327 0038683 187.1107 172.9491 13.69982439564577
UNKNOWN                 
1 82698U          26058.13541232  .00001124  00000+0  69448-3 0  9996
2 82698  61.6122 305.8235 0688186 318.1455  36.8822 13.29852878548530
UNKNOWN                 
1 82708U          26057.06116684  .00000905  00000+0  35966-2 0  9991
2 82708 102.1674 272.5145 0059414 133.1438 227.4642 12.90719687533233
UNKNOWN                 
1 82729U          26034.30198165  .00000491  00000+0  17478-2 0  9998
2 82729  67.9680  55.0044 0836970 334.6781  21.5304 12.17839691541607
UNKNOWN                 
1 82739U          26060.94404269  .00000501  00000+0  44305-3 0  9995
2 82739  99.0936 219.5999 0171805  81.8902  71.2095 13.82966322617056
UNKNOWN                 
1 82741U          26060.93588793  .00001943  00000+0  21164-2 0  9990
2 82741 102.8432 126.8873 0199546  90.9398 271.4601 13.66448717607899
UNKNOWN                 
1 82783U          26061.89169903 -.00000287  00000+0 -85822-3 0  9994
2 82783  90.3436  40.7229 0020071 260.1678  99.7184 13.09082179514849
UNKNOWN                 
1 82798U          26059.48190512  .00001920  00000+0  83774-3 0  9999
2 82798  82.9509 129.4832 0027126 292.8683  82.6977 14.23311743323437
UNKNOWN                 
1 82820U          26061.28797004  .00004522  00000+0  15628-2 0  9998
2 82820  99.7920 237.6479 0049538 149.0161 211.3959 14.35666519637043
